NOAA 10 [-]             
1 16969U 86073A   17346.51236522  .00000017  00000-0  23955-4 0  9998
2 16969  98.4621 349.6538 0013207 110.2039  41.1912 14.28028497625882
